{
  "type": "FeatureCollection",
  "features": [
    {
      "type": "Feature",
      "properties": {
        "norad_id": 66647,
        "name": "COSMOS 2597 (RODNIK-S 22)",
        "group": "last-30-days",
        "lat": -60.42936406496223,
        "lon": -95.45541586868536,
        "alt_km": 1501.1904939832748,
        "timestamp": "2025-12-26T09:30:52.340492+00:00",
        "meta_object_name": "COSMOS 2597 (RODNIK-S 22)",
        "meta_object_id": "2025-273A",
        "meta_epoch": "2025-12-26T04:02:37.807296",
        "meta_mean_motion": 12.41952291,
        "meta_eccentricity": 0.00076,
        "meta_inclination": 82.4994,
        "meta_ra_of_asc_node": 278.1109,
        "meta_arg_of_pericenter": 254.3394,
        "meta_mean_anomaly": 105.6847,
        "meta_ephemeris_type": 0,
        "meta_classification_type": "U",
        "meta_norad_cat_id": 66647,
        "meta_element_set_no": 999,
        "meta_rev_at_epoch": 380,
        "meta_bstar": 0.00017102,
        "meta_mean_motion_dot": 3.3e-07,
        "meta_mean_motion_ddot": 0,
        "tle_line1": "1 66647U 25273A   25360.16849314  .00000033  00000+0  17102-3 0  9999",
        "tle_line2": "2 66647  82.4994 278.1109 0007600 254.3394 105.6847 12.41952291  3806"
      },
      "geometry": {
        "type": "Point",
        "coordinates": [
          -95.45541586868536,
          -60.42936406496223
        ]
      }
    },
    {
      "type": "Feature",
      "properties": {
        "norad_id": 66648,
        "name": "COSMOS 2598 (RODNIK-S 23)",
        "group": "last-30-days",
        "lat": 36.84406126054624,
        "lon": -76.38426536877722,
        "alt_km": 1496.4507030694413,
        "timestamp": "2025-12-26T09:30:52.340505+00:00",
        "meta_object_name": "COSMOS 2598 (RODNIK-S 23)",
        "meta_object_id": "2025-273B",
        "meta_epoch": "2025-12-26T03:31:13.882080",
        "meta_mean_motion": 12.43233662,
        "meta_eccentricity": 0.0008231,
        "meta_inclination": 82.5033,
        "meta_ra_of_asc_node": 278.1093,
        "meta_arg_of_pericenter": 204.9131,
        "meta_mean_anomaly": 155.1553,
        "meta_ephemeris_type": 0,
        "meta_classification_type": "U",
        "meta_norad_cat_id": 66648,
        "meta_element_set_no": 999,
        "meta_rev_at_epoch": 380,
        "meta_bstar": 0.00015952,
        "meta_mean_motion_dot": 3.2e-07,
        "meta_mean_motion_ddot": 0,
        "tle_line1": "1 66648U 25273B   25360.14668845  .00000032  00000+0  15952-3 0  9996",
        "tle_line2": "2 66648  82.5033 278.1093 0008231 204.9131 155.1553 12.43233662  3805"
      },
      "geometry": {
        "type": "Point",
        "coordinates": [
          -76.38426536877722,
          36.84406126054624
        ]
      }
    },
    {
      "type": "Feature",
      "properties": {
        "norad_id": 66649,
        "name": "COSMOS 2599 (RODNIK-S 24)",
        "group": "last-30-days",
        "lat": -59.9095870613545,
        "lon": 111.13664447056823,
        "alt_km": 1503.809094576246,
        "timestamp": "2025-12-26T09:30:52.340516+00:00",
        "meta_object_name": "COSMOS 2599 (RODNIK-S 24)",
        "meta_object_id": "2025-273C",
        "meta_epoch": "2025-12-26T02:25:02.193312",
        "meta_mean_motion": 12.41152363,
        "meta_eccentricity": 0.0006341,
        "meta_inclination": 82.505,
        "meta_ra_of_asc_node": 278.1894,
        "meta_arg_of_pericenter": 242.4866,
        "meta_mean_anomaly": 117.5569,
        "meta_ephemeris_type": 0,
        "meta_classification_type": "U",
        "meta_norad_cat_id": 66649,
        "meta_element_set_no": 999,
        "meta_rev_at_epoch": 379,
        "meta_bstar": 0.00026117,
        "meta_mean_motion_dot": 4.5e-07,
        "meta_mean_motion_ddot": 0,
        "tle_line1": "1 66649U 25273C   25360.10071983  .00000045  00000+0  26117-3 0  9993",
        "tle_line2": "2 66649  82.5050 278.1894 0006341 242.4866 117.5569 12.41152363  3799"
      },
      "geometry": {
        "type": "Point",
        "coordinates": [
          111.13664447056823,
          -59.9095870613545
        ]
      }
    },
    {
      "type": "Feature",
      "properties": {
        "norad_id": 66650,
        "name": "BEE-1000",
        "group": "last-30-days",
        "lat": 35.72237746003976,
        "lon": 112.9479592169442,
        "alt_km": 586.0425577567848,
        "timestamp": "2025-12-26T09:30:52.340530+00:00",
        "meta_object_name": "BEE-1000",
        "meta_object_id": "2025-274A",
        "meta_epoch": "2025-12-26T00:49:18.622848",
        "meta_mean_motion": 14.91705122,
        "meta_eccentricity": 0.0011178,
        "meta_inclination": 97.7406,
        "meta_ra_of_asc_node": 286.9787,
        "meta_arg_of_pericenter": 202.6994,
        "meta_mean_anomaly": 157.3732,
        "meta_ephemeris_type": 0,
        "meta_classification_type": "U",
        "meta_norad_cat_id": 66650,
        "meta_element_set_no": 999,
        "meta_rev_at_epoch": 438,
        "meta_bstar": 0.00016751,
        "meta_mean_motion_dot": 1.631e-05,
        "meta_mean_motion_ddot": 0,
        "tle_line1": "1 66650U 25274A   25360.03424332  .00001631  00000+0  16751-3 0  9993",
        "tle_line2": "2 66650  97.7406 286.9787 0011178 202.6994 157.3732 14.91705122  4380"
      },
      "geometry": {
        "type": "Point",
        "coordinates": [
          112.9479592169442,
          35.72237746003976
        ]
      }
    },
    {
      "type": "Feature",
      "properties": {
        "norad_id": 66651,
        "name": "2025-274B",
        "group": "last-30-days",
        "lat": 22.929711974834014,
        "lon": 110.63663418908774,
        "alt_km": 585.8751948872614,
        "timestamp": "2025-12-26T09:30:52.340540+00:00",
        "meta_object_name": "2025-274B",
        "meta_object_id": "2025-274B",
        "meta_epoch": "2025-12-25T18:19:35.220576",
        "meta_mean_motion": 14.91892174,
        "meta_eccentricity": 0.00113461,
        "meta_inclination": 97.7401,
        "meta_ra_of_asc_node": 286.7168,
        "meta_arg_of_pericenter": 201.7982,
        "meta_mean_anomaly": 158.2756,
        "meta_ephemeris_type": 0,
        "meta_classification_type": "U",
        "meta_norad_cat_id": 66651,
        "meta_element_set_no": 999,
        "meta_rev_at_epoch": 434,
        "meta_bstar": 0.00042786053,
        "meta_mean_motion_dot": 4.275e-05,
        "meta_mean_motion_ddot": 0,
        "tle_line1": "1 66651U 25274B   25359.76360209  .00004275  00000+0  42786-3 0  9998",
        "tle_line2": "2 66651  97.7401 286.7168 0011346 201.7982 158.2756 14.91892174  4347"
      },
      "geometry": {
        "type": "Point",
        "coordinates": [
          110.63663418908774,
          22.929711974834014
        ]
      }
    },
    {
      "type": "Feature",
      "properties": {
        "norad_id": 66652,
        "name": "2025-274C",
        "group": "last-30-days",
        "lat": 10.74736495479625,
        "lon": 108.82447059178577,
        "alt_km": 587.2789676081193,
        "timestamp": "2025-12-26T09:30:52.340550+00:00",
        "meta_object_name": "2025-274C",
        "meta_object_id": "2025-274C",
        "meta_epoch": "2025-12-25T18:16:20.419680",
        "meta_mean_motion": 14.91976974,
        "meta_eccentricity": 0.00108742,
        "meta_inclination": 97.7406,
        "meta_ra_of_asc_node": 286.7213,
        "meta_arg_of_pericenter": 208.6516,
        "meta_mean_anomaly": 151.4107,
        "meta_ephemeris_type": 0,
        "meta_classification_type": "U",
        "meta_norad_cat_id": 66652,
        "meta_element_set_no": 999,
        "meta_rev_at_epoch": 434,
        "meta_bstar": 0.00035574365,
        "meta_mean_motion_dot": 3.552e-05,
        "meta_mean_motion_ddot": 0,
        "tle_line1": "1 66652U 25274C   25359.76134745  .00003552  00000+0  35574-3 0  9997",
        "tle_line2": "2 66652  97.7406 286.7213 0010874 208.6516 151.4107 14.91976974  4344"
      },
      "geometry": {
        "type": "Point",
        "coordinates": [
          108.82447059178577,
          10.74736495479625
        ]
      }
    },
    {
      "type": "Feature",
      "properties": {
        "norad_id": 66653,
        "name": "2025-274D",
        "group": "last-30-days",
        "lat": 10.429074125488055,
        "lon": 108.77927536744379,
        "alt_km": 586.4899592836364,
        "timestamp": "2025-12-26T09:30:52.340560+00:00",
        "meta_object_name": "2025-274D",
        "meta_object_id": "2025-274D",
        "meta_epoch": "2025-12-26T00:42:33.283296",
        "meta_mean_motion": 14.91968008,
        "meta_eccentricity": 0.0011877,
        "meta_inclination": 97.7404,
        "meta_ra_of_asc_node": 286.9844,
        "meta_arg_of_pericenter": 204.3083,
        "meta_mean_anomaly": 155.7577,
        "meta_ephemeris_type": 0,
        "meta_classification_type": "U",
        "meta_norad_cat_id": 66653,
        "meta_element_set_no": 999,
        "meta_rev_at_epoch": 438,
        "meta_bstar": 0.00025673,
        "meta_mean_motion_dot": 2.547e-05,
        "meta_mean_motion_ddot": 0,
        "tle_line1": "1 66653U 25274D   25360.02955189  .00002547  00000+0  25673-3 0  9994",
        "tle_line2": "2 66653  97.7404 286.9844 0011877 204.3083 155.7577 14.91968008  4382"
      },
      "geometry": {
        "type": "Point",
        "coordinates": [
          108.77927536744379,
          10.429074125488055
        ]
      }
    }
  ]
}